     2.100          NAVIGATION                              RINEX VERSION / TYPE
fic2rin                                 06/27/2013 01:18:36 PGM / RUN BY / DATE
                                                            END OF HEADER
31 13  6 26  6  0  0.0  .318892300129D-03  .113686837722D-11  .000000000000D+00
     .760000000000D+02  .111031250000D+03  .392802076069D-08 -.207101621832D+01
     .579655170441D-05  .784218125045D-02  .838749110699D-05  .515362062263D+04
     .280800000000D+06 -.122934579849D-06  .119916838565D+01  .949949026108D-07
     .980218928521D+00  .231562500000D+03 -.734165977897D+00 -.787425656582D-08
     .206794328100D-09  .100000000000D+01  .174600000000D+04  .000000000000D+00
     .240000000000D+01  .000000000000D+00 -.130385160446D-07  .760000000000D+02
     .273606000000D+06  .400000000000D+01
32 13  6 26  6  0  0.0 -.558999832720D-03  .341060513165D-12  .000000000000D+00
     .450000000000D+02 -.346875000000D+01  .542058293189D-08 -.157866964657D+01
    -.195577740669D-06  .115607816260D-01  .491365790367D-05  .515365550613D+04
     .280800000000D+06 -.186264514923D-07 -.833563468419D+00 -.286847352982D-06
     .948875128938D+00  .278218750000D+03 -.344474747933D+00 -.862035907256D-08
    -.714315468392D-10  .100000000000D+01  .174600000000D+04  .000000000000D+00
     .240000000000D+01  .000000000000D+00 -.279396772385D-08  .450000000000D+02
     .273606000000D+06  .400000000000D+01
31 13  6 26  5 59 44.0  .318894628435D-03  .113686837722D-11  .000000000000D+00
     .290000000000D+02  .111031250000D+03  .392802076069D-08 -.207335022366D+01
     .579655170441D-05  .784218008630D-02  .838749110699D-05  .515362062645D+04
     .280784000000D+06 -.122934579849D-06  .119916852609D+01  .949949026108D-07
     .980218928521D+00  .231562500000D+03 -.734165871104D+00 -.787425656582D-08
     .207151485834D-09  .100000000000D+01  .174600000000D+04  .000000000000D+00
     .240000000000D+01  .000000000000D+00 -.130385160446D-07  .290000000000D+02
     .273876000000D+06  .400000000000D+01
19 13  6 26  5 59 44.0 -.384015031159D-03 -.295585778076D-11  .000000000000D+00
     .290000000000D+02 -.103968750000D+03  .429303596504D-08 -.212057846089D-01
    -.537373125553D-05  .939451309387D-02  .963732600212D-05  .515372090530D+04
     .280784000000D+06  .968575477600D-07 -.292261490216D+01  .707805156708D-07
     .963309179865D+00  .196031250000D+03  .326121830592D+00 -.808212236712D-08
    -.432160858377D-10  .100000000000D+01  .174600000000D+04  .000000000000D+00
     .240000000000D+01  .000000000000D+00 -.149011611938D-07  .290000000000D+02
     .275256000000D+06  .400000000000D+01
 6 13  6 26  5 59 44.0  .170725397766D-03 -.171667124960D-10  .000000000000D+00
     .800000000000D+01 -.119625000000D+03  .479734268572D-08  .131733809802D+01
    -.623799860477D-05  .809760403354D-02  .813789665699D-05  .515368537712D+04
     .280784000000D+06  .651925802231D-07 -.307834691460D+01  .987201929092D-07
     .941813054294D+00  .213343750000D+03 -.288152622782D+00 -.822855703814D-08
    -.195365280605D-09  .100000000000D+01  .174600000000D+04  .000000000000D+00
     .240000000000D+01  .000000000000D+00 -.512227416039D-08  .800000000000D+01
     .279486000000D+06  .400000000000D+01
24 13  6 26  5 59 44.0 -.890018418431D-05 -.682121026330D-12  .000000000000D+00
     .430000000000D+02  .121562500000D+03  .426910639685D-08 -.140773785677D+01
     .636279582977D-05  .952443573624D-03  .921636819839D-05  .515368247986D+04
     .280784000000D+06  .204890966415D-07  .116548173008D+01 -.912696123123D-07
     .958768595212D+00  .202781250000D+03  .423910323349D+00 -.805247827518D-08
     .173221501085D-09  .100000000000D+01  .174600000000D+04  .000000000000D+00
     .240000000000D+01  .000000000000D+00  .279396772385D-08  .430000000000D+02
     .279846000000D+06  .400000000000D+01
 6 13  6 26  7 59 44.0  .170601531863D-03 -.171667124960D-10  .000000000000D+00
     .260000000000D+02 -.126406250000D+03  .475376944215D-08  .236749758629D+01
    -.653788447380D-05  .809709460009D-02  .813417136669D-05  .515368588638D+04
     .287984000000D+06  .558793544769D-08 -.307840594188D+01  .707805156708D-07
     .941811493360D+00  .211468750000D+03 -.288136129844D+00 -.821069915143D-08
    -.221794952936D-09  .100000000000D+01  .174600000000D+04  .000000000000D+00
     .240000000000D+01  .000000000000D+00 -.512227416039D-08  .260000000000D+02
     .280806000000D+06  .400000000000D+01
19 13  6 26  7 59 44.0 -.384036451578D-03 -.295585778076D-11  .000000000000D+00
     .300000000000D+02 -.110718750000D+03  .426446334630D-08  .102902649115D+01
    -.570900738239D-05  .939379411284D-02  .940077006817D-05  .515371901131D+04
     .287984000000D+06 -.800937414169D-07 -.292267202911D+01  .130385160446D-06
     .963308860949D+00  .201500000000D+03  .326039620447D+00 -.797318925819D-08
    -.161078138122D-09  .100000000000D+01  .174600000000D+04  .000000000000D+00
     .240000000000D+01  .000000000000D+00 -.149011611938D-07  .300000000000D+02
     .280806000000D+06  .400000000000D+01
24 13  6 26  7 59 44.0 -.890530645847D-05 -.682121026330D-12  .000000000000D+00
     .440000000000D+02  .127218750000D+03  .440839791318D-08 -.358072663644D+00
     .639818608761D-05  .952637637965D-03  .881962478161D-05  .515368201065D+04
     .287984000000D+06  .353902578354D-07  .116542370928D+01  .279396772385D-07
     .958769247673D+00  .207062500000D+03  .424419936714D+00 -.814926802115D-08
     .123933733766D-09  .100000000000D+01  .174600000000D+04  .000000000000D+00
     .240000000000D+01  .000000000000D+00  .279396772385D-08  .440000000000D+02
     .280806000000D+06  .400000000000D+01
 1 13  6 26  8  0  0.0  .421917065978D-04  .477484718431D-11  .000000000000D+00
     .970000000000D+02  .119687500000D+02  .451804533758D-08 -.363779964964D+00
     .691041350365D-06  .200388929807D-02  .102762132883D-04  .515369747162D+04
     .288000000000D+06  .316649675369D-07 -.196601189969D+01 -.353902578354D-07
     .960028037478D+00  .182218750000D+03  .262221102219D+00 -.797461788913D-08
     .566809324169D-09  .100000000000D+01  .174600000000D+04  .000000000000D+00
     .340000000000D+01  .000000000000D+00  .838190317154D-08  .970000000000D+02
     .280806000000D+06  .400000000000D+01
 2 13  6 26  8  0  0.0  .438842922449D-03  .181898940355D-11  .000000000000D+00
     .880000000000D+02  .268125000000D+02  .509271213190D-08  .371972620736D+00
     .139512121677D-05  .124410245335D-01  .110119581223D-04  .515368185043D+04
     .288000000000D+06  .186264514923D-07 -.198832620316D+01  .298023223877D-06
     .938555087455D+00  .159250000000D+03 -.258431591849D+01 -.834463330176D-08
     .603953728526D-09  .100000000000D+01  .174600000000D+04  .000000000000D+00
     .240000000000D+01  .000000000000D+00 -.176951289177D-07  .880000000000D+02
     .280806000000D+06  .400000000000D+01
 3 13  6 26  8  0  0.0  .224947929382D-03  .488853402203D-11  .000000000000D+00
     .390000000000D+02 -.115343750000D+03  .509664086698D-08  .545043582979D+00
    -.606477260590D-05  .164078355301D-01  .733509659767D-05  .515370482826D+04
     .288000000000D+06 -.253319740295D-06  .312512981178D+01 -.987201929092D-07
     .935192059692D+00  .230062500000D+03  .129876902575D+01 -.867393273269D-08
    -.290369237901D-09  .100000000000D+01  .174600000000D+04  .000000000000D+00
     .340000000000D+01  .000000000000D+00 -.465661287308D-08  .390000000000D+02
     .280806000000D+06  .400000000000D+01
 4 13  6 26  8  0  0.0  .255970284343D-03  .102318153949D-10  .000000000000D+00
     .110000000000D+03  .268125000000D+02  .498235039204D-08 -.270457156918D+01
     .101700425148D-05  .103059245739D-01  .108871608973D-04  .515356951904D+04
     .288000000000D+06  .558793544769D-07 -.197190323464D+01 -.819563865662D-07
     .937579359132D+00  .155156250000D+03  .981236240291D+00 -.802104839458D-08
     .686814322859D-09  .100000000000D+01  .174600000000D+04  .000000000000D+00
     .340000000000D+01  .000000000000D+00 -.605359673500D-08  .110000000000D+03
     .280806000000D+06  .400000000000D+01
 5 13  6 26  8  0  0.0 -.397665426135D-03 -.682121026330D-12  .000000000000D+00
     .490000000000D+02  .343750000000D+01  .549415742514D-08  .261837264845D+01
     .255182385445D-06  .306529633235D-02  .485032796860D-05  .515363282776D+04
     .288000000000D+06 -.875443220139D-07 -.922527835353D+00 -.260770320892D-07
     .948272547129D+00  .280250000000D+03  .252919355586D+00 -.845356641069D-08
    -.178578867098D-11  .100000000000D+01  .174600000000D+04  .000000000000D+00
     .240000000000D+01  .000000000000D+00 -.102445483208D-07  .490000000000D+02
     .280806000000D+06  .400000000000D+01
 7 13  6 26  8  0  0.0  .229316297919D-03  .420641299570D-11  .000000000000D+00
     .370000000000D+02  .105156250000D+03  .399766651886D-08 -.100062791432D+01
     .537745654583D-05  .653553404845D-02  .823102891445D-05  .515368681526D+04
     .288000000000D+06  .113621354103D-06  .119445374886D+01 -.135973095894D-06
     .975234099535D+00  .231375000000D+03 -.293210346197D+01 -.788711424425D-08
     .121433629627D-09  .100000000000D+01  .174600000000D+04  .000000000000D+00
     .240000000000D+01  .000000000000D+00 -.107102096081D-07  .370000000000D+02
     .280806000000D+06  .400000000000D+01
 8 13  6 26  8  0  0.0  .699702650309D-05  .227373675443D-12  .000000000000D+00
     .127000000000D+03  .114937500000D+03  .358622080906D-08 -.156704826923D+01
     .581890344620D-05  .130578288808D-01  .715814530849D-05  .515371435738D+04
     .288000000000D+06 -.242143869400D-07  .128640463818D+01 -.193715095520D-06
     .997951230663D+00  .263125000000D+03 -.287047947885D+01 -.760674542291D-08
     .331799535068D-09  .100000000000D+01  .174600000000D+04  .000000000000D+00
     .340000000000D+01  .000000000000D+00 -.419095158577D-08  .127000000000D+03
     .280806000000D+06  .400000000000D+01
